[
  {
    "OBJECT_NAME": "STARLINK-36277",
    "OBJECT_ID": "2026-057M",
    "EPOCH": "2026-04-17T06:21:08.750304",
    "MEAN_MOTION": 15.75259251,
    "ECCENTRICITY": 0.00016307,
    "INCLINATION": 97.2866,
    "RA_OF_ASC_NODE": 231.5677,
    "ARG_OF_PERICENTER": 80.2675,
    "MEAN_ANOMALY": 279.8774,
    "EPHEMERIS_TYPE": 0,
    "CLASSIFICATION_TYPE": "U",
    "NORAD_CAT_ID": 68305,
    "ELEMENT_SET_NO": 999,
    "REV_AT_EPOCH": 435,
    "BSTAR": 0.0013402949,
    "MEAN_MOTION_DOT": 0.00205278,
    "MEAN_MOTION_DDOT": 0
  },
  {
    "OBJECT_NAME": "STARLINK-36307",
    "OBJECT_ID": "2026-057N",
    "EPOCH": "2026-04-17T06:00:02.999808",
    "MEAN_MOTION": 15.80811716,
    "ECCENTRICITY": 0.00013661,
    "INCLINATION": 97.2855,
    "RA_OF_ASC_NODE": 231.6444,
    "ARG_OF_PERICENTER": 71.1223,
    "MEAN_ANOMALY": 49.7009,
    "EPHEMERIS_TYPE": 0,
    "CLASSIFICATION_TYPE": "U",
    "NORAD_CAT_ID": 68306,
    "ELEMENT_SET_NO": 999,
    "REV_AT_EPOCH": 551,
    "BSTAR": 8.1296076e-05,
    "MEAN_MOTION_DOT": 0.00015455,
    "MEAN_MOTION_DDOT": 0
  },
  {
    "OBJECT_NAME": "STARLINK-36264",
    "OBJECT_ID": "2026-057P",
    "EPOCH": "2026-04-17T06:03:21.911616",
    "MEAN_MOTION": 15.75268128,
    "ECCENTRICITY": 0.0003535,
    "INCLINATION": 97.2855,
    "RA_OF_ASC_NODE": 231.585,
    "ARG_OF_PERICENTER": 71.7228,
    "MEAN_ANOMALY": 288.4422,
    "EPHEMERIS_TYPE": 0,
    "CLASSIFICATION_TYPE": "U",
    "NORAD_CAT_ID": 68307,
    "ELEMENT_SET_NO": 999,
    "REV_AT_EPOCH": 435,
    "BSTAR": 0.001272891,
    "MEAN_MOTION_DOT": 0.00194818,
    "MEAN_MOTION_DDOT": 0
  },
  {
    "OBJECT_NAME": "STARLINK-37138",
    "OBJECT_ID": "2026-057Q",
    "EPOCH": "2026-04-17T07:32:18.151008",
    "MEAN_MOTION": 15.75310699,
    "ECCENTRICITY": 0.00032952,
    "INCLINATION": 97.2857,
    "RA_OF_ASC_NODE": 231.6527,
    "ARG_OF_PERICENTER": 303.053,
    "MEAN_ANOMALY": 57.0418,
    "EPHEMERIS_TYPE": 0,
    "CLASSIFICATION_TYPE": "U",
    "NORAD_CAT_ID": 68308,
    "ELEMENT_SET_NO": 999,
    "REV_AT_EPOCH": 436,
    "BSTAR": 0.0013003071,
    "MEAN_MOTION_DOT": 0.00199486,
    "MEAN_MOTION_DDOT": 0
  },
  {
    "OBJECT_NAME": "STARLINK-37149",
    "OBJECT_ID": "2026-057R",
    "EPOCH": "2026-04-16T14:51:06.197472",
    "MEAN_MOTION": 15.75230982,
    "ECCENTRICITY": 0.00012444,
    "INCLINATION": 97.2865,
    "RA_OF_ASC_NODE": 230.9149,
    "ARG_OF_PERICENTER": 70.1141,
    "MEAN_ANOMALY": 290.0258,
    "EPHEMERIS_TYPE": 0,
    "CLASSIFICATION_TYPE": "U",
    "NORAD_CAT_ID": 68309,
    "ELEMENT_SET_NO": 999,
    "REV_AT_EPOCH": 425,
    "BSTAR": 0.0010587285,
    "MEAN_MOTION_DOT": 0.00161084,
    "MEAN_MOTION_DDOT": 0
  },
  {
    "OBJECT_NAME": "STARLINK-37148",
    "OBJECT_ID": "2026-057S",
    "EPOCH": "2026-04-17T05:52:41.596896",
    "MEAN_MOTION": 15.7531559,
    "ECCENTRICITY": 0.0001654,
    "INCLINATION": 97.2853,
    "RA_OF_ASC_NODE": 231.5938,
    "ARG_OF_PERICENTER": 345.2052,
    "MEAN_ANOMALY": 14.9164,
    "EPHEMERIS_TYPE": 0,
    "CLASSIFICATION_TYPE": "U",
    "NORAD_CAT_ID": 68310,
    "ELEMENT_SET_NO": 999,
    "REV_AT_EPOCH": 435,
    "BSTAR": 0.0015449059,
    "MEAN_MOTION_DOT": 0.00238135,
    "MEAN_MOTION_DDOT": 0
  },
  {
    "OBJECT_NAME": "STARLINK-37140",
    "OBJECT_ID": "2026-057T",
    "EPOCH": "2026-04-17T06:55:14.022336",
    "MEAN_MOTION": 15.81134135,
    "ECCENTRICITY": 0.00021999,
    "INCLINATION": 97.2868,
    "RA_OF_ASC_NODE": 231.6907,
    "ARG_OF_PERICENTER": 144.6057,
    "MEAN_ANOMALY": 215.5358,
    "EPHEMERIS_TYPE": 0,
    "CLASSIFICATION_TYPE": "U",
    "NORAD_CAT_ID": 68311,
    "ELEMENT_SET_NO": 999,
    "REV_AT_EPOCH": 436,
    "BSTAR": 0.0018367915,
    "MEAN_MOTION_DOT": 0.00372506,
    "MEAN_MOTION_DDOT": 0
  },
  {
    "OBJECT_NAME": "STARLINK-36854",
    "OBJECT_ID": "2026-057U",
    "EPOCH": "2026-04-17T06:53:04.323840",
    "MEAN_MOTION": 15.80967759,
    "ECCENTRICITY": 0.00014149,
    "INCLINATION": 97.2861,
    "RA_OF_ASC_NODE": 231.6933,
    "ARG_OF_PERICENTER": 121.5809,
    "MEAN_ANOMALY": 238.5597,
    "EPHEMERIS_TYPE": 0,
    "CLASSIFICATION_TYPE": "U",
    "NORAD_CAT_ID": 68312,
    "ELEMENT_SET_NO": 999,
    "REV_AT_EPOCH": 436,
    "BSTAR": 0.0013358352,
    "MEAN_MOTION_DOT": 0.00265508,
    "MEAN_MOTION_DDOT": 0
  },
  {
    "OBJECT_NAME": "STARLINK-36815",
    "OBJECT_ID": "2026-057V",
    "EPOCH": "2026-04-17T06:51:59.313888",
    "MEAN_MOTION": 15.80948656,
    "ECCENTRICITY": 6.157e-05,
    "INCLINATION": 97.2867,
    "RA_OF_ASC_NODE": 231.6931,
    "ARG_OF_PERICENTER": 77.6729,
    "MEAN_ANOMALY": 282.4608,
    "EPHEMERIS_TYPE": 0,
    "CLASSIFICATION_TYPE": "U",
    "NORAD_CAT_ID": 68313,
    "ELEMENT_SET_NO": 999,
    "REV_AT_EPOCH": 436,
    "BSTAR": 0.0017558014,
    "MEAN_MOTION_DOT": 0.00352265,
    "MEAN_MOTION_DDOT": 0
  },
  {
    "OBJECT_NAME": "STARLINK-37155",
    "OBJECT_ID": "2026-057W",
    "EPOCH": "2026-04-17T06:49:49.405440",
    "MEAN_MOTION": 15.80922658,
    "ECCENTRICITY": 0.00014201,
    "INCLINATION": 97.2862,
    "RA_OF_ASC_NODE": 231.6951,
    "ARG_OF_PERICENTER": 117.5234,
    "MEAN_ANOMALY": 242.6178,
    "EPHEMERIS_TYPE": 0,
    "CLASSIFICATION_TYPE": "U",
    "NORAD_CAT_ID": 68314,
    "ELEMENT_SET_NO": 999,
    "REV_AT_EPOCH": 436,
    "BSTAR": 0.0013861801,
    "MEAN_MOTION_DOT": 0.00275264,
    "MEAN_MOTION_DDOT": 0
  },
  {
    "OBJECT_NAME": "STARLINK-37150",
    "OBJECT_ID": "2026-057X",
    "EPOCH": "2026-04-17T05:55:13.913184",
    "MEAN_MOTION": 15.75252205,
    "ECCENTRICITY": 0.0002458,
    "INCLINATION": 97.2857,
    "RA_OF_ASC_NODE": 231.5923,
    "ARG_OF_PERICENTER": 68.1323,
    "MEAN_ANOMALY": 292.0203,
    "EPHEMERIS_TYPE": 0,
    "CLASSIFICATION_TYPE": "U",
    "NORAD_CAT_ID": 68315,
    "ELEMENT_SET_NO": 999,
    "REV_AT_EPOCH": 435,
    "BSTAR": 0.0011091575,
    "MEAN_MOTION_DOT": 0.0016909,
    "MEAN_MOTION_DDOT": 0
  },
  {
    "OBJECT_NAME": "STARLINK-37154",
    "OBJECT_ID": "2026-057Y",
    "EPOCH": "2026-04-17T07:14:31.612128",
    "MEAN_MOTION": 15.75173589,
    "ECCENTRICITY": 0.00017819,
    "INCLINATION": 97.2838,
    "RA_OF_ASC_NODE": 231.6684,
    "ARG_OF_PERICENTER": 104.7375,
    "MEAN_ANOMALY": 255.4088,
    "EPHEMERIS_TYPE": 0,
    "CLASSIFICATION_TYPE": "U",
    "NORAD_CAT_ID": 68316,
    "ELEMENT_SET_NO": 999,
    "REV_AT_EPOCH": 436,
    "BSTAR": 0.0012198388,
    "MEAN_MOTION_DOT": 0.00185698,
    "MEAN_MOTION_DDOT": 0
  },
  {
    "OBJECT_NAME": "STARLINK-37139",
    "OBJECT_ID": "2026-057Z",
    "EPOCH": "2026-04-17T06:48:44.517312",
    "MEAN_MOTION": 15.80898846,
    "ECCENTRICITY": 0.00020935,
    "INCLINATION": 97.286,
    "RA_OF_ASC_NODE": 231.6939,
    "ARG_OF_PERICENTER": 109.4263,
    "MEAN_ANOMALY": 250.7232,
    "EPHEMERIS_TYPE": 0,
    "CLASSIFICATION_TYPE": "U",
    "NORAD_CAT_ID": 68317,
    "ELEMENT_SET_NO": 999,
    "REV_AT_EPOCH": 436,
    "BSTAR": 0.0013561534,
    "MEAN_MOTION_DOT": 0.0026881,
    "MEAN_MOTION_DDOT": 0
  },
  {
    "OBJECT_NAME": "STARLINK-37113",
    "OBJECT_ID": "2026-057AA",
    "EPOCH": "2026-04-17T02:43:07.912992",
    "MEAN_MOTION": 15.75289279,
    "ECCENTRICITY": 0.00019808,
    "INCLINATION": 97.2854,
    "RA_OF_ASC_NODE": 231.4672,
    "ARG_OF_PERICENTER": 65.1982,
    "MEAN_ANOMALY": 294.9489,
    "EPHEMERIS_TYPE": 0,
    "CLASSIFICATION_TYPE": "U",
    "NORAD_CAT_ID": 68318,
    "ELEMENT_SET_NO": 999,
    "REV_AT_EPOCH": 433,
    "BSTAR": 0.0018120946,
    "MEAN_MOTION_DOT": 0.00280425,
    "MEAN_MOTION_DDOT": 0
  }
]