STARLINK-36277          
1 68305U 26057M   26107.26468461  .00205278  00000+0  13403-2 0  9991
2 68305  97.2866 231.5677 0001630  80.2675 279.8774 15.75259251  4359
STARLINK-36307          
1 68306U 26057N   26107.25003472  .00015455  00000+0  81296-4 0  9991
2 68306  97.2855 231.6444 0001366  71.1223  49.7009 15.80811716  5515
STARLINK-36264          
1 68307U 26057P   26107.25233694  .00194818  00000+0  12729-2 0  9997
2 68307  97.2855 231.5850 0003535  71.7228 288.4422 15.75268128  4356
STARLINK-37138          
1 68308U 26057Q   26107.31409897  .00199486  00000+0  13003-2 0  9997
2 68308  97.2857 231.6527 0003295 303.0530  57.0418 15.75310699  4368
STARLINK-37149          
1 68309U 26057R   26106.61882173  .00161084  00000+0  10587-2 0  9999
2 68309  97.2865 230.9149 0001244  70.1141 290.0258 15.75230982  4257
STARLINK-37148          
1 68310U 26057S   26107.24492589  .00238135  00000+0  15449-2 0  9993
2 68310  97.2853 231.5938 0001654 345.2052  14.9164 15.75315590  4350
STARLINK-37140          
1 68311U 26057T   26107.28835674  .00372506  00000+0  18368-2 0  9998
2 68311  97.2868 231.6907 0002199 144.6057 215.5358 15.81134135  4361
STARLINK-36854          
1 68312U 26057U   26107.28685560  .00265508  00000+0  13358-2 0  9993
2 68312  97.2861 231.6933 0001414 121.5809 238.5597 15.80967759  4367
STARLINK-36815          
1 68313U 26057V   26107.28610317  .00352265  00000+0  17558-2 0  9995
2 68313  97.2867 231.6931 0000615  77.6729 282.4608 15.80948656  4362
STARLINK-37155          
1 68314U 26057W   26107.28459960  .00275264  00000+0  13862-2 0  9998
2 68314  97.2862 231.6951 0001420 117.5234 242.6178 15.80922658  4364
STARLINK-37150          
1 68315U 26057X   26107.24668881  .00169090  00000+0  11092-2 0  9991
2 68315  97.2857 231.5923 0002458  68.1323 292.0203 15.75252205  4354
STARLINK-37154          
1 68316U 26057Y   26107.30175477  .00185698  00000+0  12198-2 0  9993
2 68316  97.2838 231.6684 0001781 104.7375 255.4088 15.75173589  4363
STARLINK-37139          
1 68317U 26057Z   26107.28384858  .00268810  00000+0  13562-2 0  9990
2 68317  97.2860 231.6939 0002093 109.4263 250.7232 15.80898846  4362
STARLINK-37113          
1 68318U 26057AA  26107.11328603  .00280425  00000+0  18121-2 0  9991
2 68318  97.2854 231.4672 0001980  65.1982 294.9489 15.75289279  4337
